[ {"name": "STARLINK-30708", "line1": "1 57944U 23148K   26156.23958094  .00012916  00000+0  39292-3 0  9993", "line2": "2 57944  53.1624 337.1243 0000976  92.2176 267.8938 15.34385486151832"}, {"name": "STARLINK-30705", "line1": "1 57945U 23148L   26155.72059697  .00001123  00000+0  44377-4 0  9997", "line2": "2 57945  53.1613 339.5776 0001119  79.4951 280.6178 15.34390565151750"}, {"name": "STARLINK-30706", "line1": "1 57947U 23148N   26156.21433731  .00003798  00000+0  12352-3 0  9996", "line2": "2 57947  53.1592 336.9636 0001236  93.0027 267.1117 15.34389143151832"}, {"name": "STARLINK-30707", "line1": "1 57949U 23148Q   26156.22906985 -.00000330  00000+0  13531-5 0  9997", "line2": "2 57949  53.1614 337.0580 0001237  91.9392 268.1752 15.34385893151836"}, {"name": "STARLINK-30399", "line1": "1 57951U 23148S   26156.80688119 -.00000972  00000+0 -17661-4 0  9990", "line2": "2 57951  53.1611 334.2482 0000960 134.9369 225.1711 15.34380510151929"}, {"name": "STARLINK-30713", "line1": "1 57952U 23148T   26156.77117121  .00095921  00000+0  28407-2 0  9991", "line2": "2 57952  53.1607 334.7551 0001107  57.6191 302.4919 15.34101610151915"}, {"name": "STARLINK-30700", "line1": "1 57953U 23148U   26155.72048048 -.00000374  00000+0 -49625-6 0  9996", "line2": "2 57953  53.1623 329.9595 0001113  67.8050 292.3069 15.30192936151888"}, {"name": "STARLINK-30703", "line1": "1 57954U 23148V   26155.69948415  .00001456  00000+0  54270-4 0  9990", "line2": "2 57954  53.1617 329.3663 0001127  90.7401 269.3731 15.34360609151891"}, {"name": "STARLINK-30396", "line1": "1 57964U 23151A   26153.50086299 -.00002490  00000+0 -80954-4 0  9995", "line2": "2 57964  43.0028 217.3426 0001136 235.4666 124.6079 15.27591754148736"}, {"name": "STARLINK-30524", "line1": "1 57965U 23151B   26153.23288908  .00002345  00000+0  94785-4 0  9991", "line2": "2 57965  43.0058 218.7796 0002261 276.0540  84.0054 15.27563840148699"}, {"name": "STARLINK-30521", "line1": "1 57966U 23151C   26156.40340946  .00000215  00000+0  17340-4 0  9991", "line2": "2 57966  43.0019 200.4279 0001931 276.5728  83.4904 15.27577849149183"}, {"name": "STARLINK-30528", "line1": "1 57967U 23151D   26156.40726441  .00000712  00000+0  35398-4 0  9995", "line2": "2 57967  42.9988 200.4533 0000942 270.2561  89.8182 15.27579865149185"}, {"name": "STARLINK-30495", "line1": "1 57968U 23151E   26156.42139485  .00000657  00000+0  33370-4 0  9990", "line2": "2 57968  42.9995 200.5554 0000265 260.4905  99.5917 15.27581678149188"}, {"name": "STARLINK-30494", "line1": "1 57970U 23151G   26156.75875779  .00000104  00000+0  13297-4 0  9995", "line2": "2 57970  43.0039  53.1837 0001253 266.3395  93.7314 15.27577417150921"}, {"name": "STARLINK-30505", "line1": "1 57972U 23151J   26153.49828988  .00017922  00000+0  65894-3 0  9990", "line2": "2 57972  42.9976 217.3096 0001059 355.2558   4.8283 15.27592962148731"}, {"name": "STARLINK-30502", "line1": "1 57973U 23151K   26156.41368533  .00000820  00000+0  39298-4 0  9990", "line2": "2 57973  42.9985 200.4880 0000917 273.8771  86.1976 15.27581616149186"}, {"name": "STARLINK-30489", "line1": "1 57974U 23151L   26156.61499399  .00004028  00000+0  15583-3 0  9992", "line2": "2 57974  42.9996 199.4226 0001274 287.6117  72.4595 15.27576031149218"}, {"name": "STARLINK-30503", "line1": "1 57975U 23151M   26156.25093492  .00002381  00000+0  95994-4 0  9992", "line2": "2 57975  43.0044 201.8271 0001395 264.9002  95.1690 15.27584906149159"}, {"name": "STARLINK-30512", "line1": "1 57976U 23151N   26156.28035084  .00000802  00000+0  38644-4 0  9994", "line2": "2 57976  42.9973 201.1567 0000395 341.0604  19.0232 15.27575479149167"}, {"name": "STARLINK-30509", "line1": "1 57977U 23151P   26156.43883772  .00002889  00000+0  11446-3 0  9994", "line2": "2 57977  42.9996 215.1133 0001625 270.9785  89.0880 15.27578848149017"}, {"name": "STARLINK-30511", "line1": "1 57978U 23151Q   26153.50289647 -.00003092  00000+0 -10292-3 0  9998", "line2": "2 57978  43.0020 231.7764 0001407 280.7559  79.3134 15.27567207148568"}, {"name": "STARLINK-30508", "line1": "1 57979U 23151R   26155.27215632 -.00000407  00000+0 -52838-5 0  9999", "line2": "2 57979  42.9975 221.8266 0000885 262.1205  97.9546 15.27578945148838"}, {"name": "STARLINK-30510", "line1": "1 57981U 23151T   26154.59597389  .00007029  00000+0  26470-3 0  9994", "line2": "2 57981  43.0043 228.7659 0001808 262.9349  97.1297 15.27580226148698"}, {"name": "STARLINK-30507", "line1": "1 57982U 23151U   26152.57283632 -.00000560  00000+0 -10825-4 0  9997", "line2": "2 57982  43.0007 240.2381 0001696 229.8284 130.2419 15.27567170148378"}, {"name": "STARLINK-30515", "line1": "1 57983U 23151V   26152.31513902  .00000818  00000+0  39280-4 0  9996", "line2": "2 57983  43.0053 241.7398 0002512 258.1757 101.8813 15.27578289148333"}, {"name": "STARLINK-30516", "line1": "1 57984U 23151W   26156.43834588  .00003254  00000+0  12771-3 0  9992", "line2": "2 57984  43.0023 218.5166 0001689 276.9259  83.1400 15.27587041148975"}]