OBJECT_NAME,OBJECT_ID,EPOCH,MEAN_MOTION,ECCENTRICITY,INCLINATION,RA_OF_ASC_NODE,ARG_OF_PERICENTER,MEAN_ANOMALY,EPHEMERIS_TYPE,CLASSIFICATION_TYPE,NORAD_CAT_ID,ELEMENT_SET_NO,REV_AT_EPOCH,BSTAR,MEAN_MOTION_DOT,MEAN_MOTION_DDOT
STARLINK-30708,2023-148K,2026-06-05T05:44:59.793216,15.34385486,.0000976,53.1624,337.1243,92.2176,267.8938,0,U,57944,999,15183,.39292E-3,.12916E-3,0
STARLINK-30705,2023-148L,2026-06-04T17:17:39.578208,15.34390565,.00011191,53.1613,339.5776,79.4951,280.6178,0,U,57945,999,15175,.44376968E-4,.1123E-4,0
STARLINK-30706,2023-148N,2026-06-05T05:08:38.743584,15.34389143,.0001236,53.1592,336.9636,93.0027,267.1117,0,U,57947,999,15183,.12352E-3,.3798E-4,0
STARLINK-30707,2023-148Q,2026-06-05T05:29:51.635040,15.34385893,.0001237,53.1614,337.0580,91.9392,268.1752,0,U,57949,999,15183,.13531E-5,-.33E-5,0
STARLINK-30399,2023-148S,2026-06-05T19:21:54.533952,15.34380510,.000096,53.1611,334.2482,134.9369,225.1711,0,U,57951,999,15192,-.17661E-4,-.972E-5,0
STARLINK-30713,2023-148T,2026-06-05T18:30:29.191680,15.34101610,.0001108,53.1607,334.7551,57.6191,302.4919,0,U,57952,999,15191,.28407E-2,.95921E-3,0
STARLINK-30700,2023-148U,2026-06-04T17:17:29.513472,15.30192936,.0001113,53.1623,329.9595,67.8050,292.3069,0,U,57953,999,15188,-.496253E-6,-.374E-5,0
STARLINK-30703,2023-148V,2026-06-04T16:47:15.430560,15.34360609,.00011279,53.1617,329.3663,90.7401,269.3731,0,U,57954,999,15189,.54270262E-4,.1456E-4,0
STARLINK-30396,2023-151A,2026-06-02T12:01:14.562336,15.27591754,.0001136,43.0028,217.3426,235.4666,124.6079,0,U,57964,999,14873,-.80954E-4,-.249E-4,0
STARLINK-30524,2023-151B,2026-06-02T05:35:21.616512,15.27563840,.00022616,43.0058,218.7796,276.0540,84.0054,0,U,57965,999,14869,.94785272E-4,.2345E-4,0
STARLINK-30521,2023-151C,2026-06-05T09:40:54.577344,15.27577849,.0001932,43.0019,200.4279,276.5728,83.4904,0,U,57966,999,14918,.1734E-4,.215E-5,0
STARLINK-30528,2023-151D,2026-06-05T09:46:27.645024,15.27579865,.0000943,42.9988,200.4533,270.2561,89.8182,0,U,57967,999,14918,.35398E-4,.712E-5,0
STARLINK-30495,2023-151E,2026-06-05T10:06:48.515040,15.27581678,.0000266,42.9995,200.5554,260.4905,99.5917,0,U,57968,999,14918,.3337E-4,.657E-5,0
STARLINK-30494,2023-151G,2026-06-05T18:12:36.673056,15.27577417,.0001253,43.0039,53.1837,266.3395,93.7314,0,U,57970,999,15092,.13297E-4,.104E-5,0
STARLINK-30505,2023-151J,2026-06-02T11:57:32.245632,15.27592962,.0001059,42.9976,217.3096,355.2558,4.8283,0,U,57972,999,14873,.65894E-3,.17922E-3,0
STARLINK-30502,2023-151K,2026-06-05T09:55:42.411648,15.27581616,.0000917,42.9985,200.4880,273.8771,86.1976,0,U,57973,999,14918,.39298E-4,.82E-5,0
STARLINK-30489,2023-151L,2026-06-05T14:45:35.479872,15.27576031,.0001275,42.9996,199.4226,287.6117,72.4595,0,U,57974,999,14921,.15583E-3,.4028E-4,0
STARLINK-30503,2023-151M,2026-06-05T06:01:20.777088,15.27584906,.0001395,43.0044,201.8271,264.9002,95.1690,0,U,57975,999,14915,.95994E-4,.2381E-4,0
STARLINK-30512,2023-151N,2026-06-05T06:43:42.312576,15.27575479,.0000395,42.9973,201.1567,341.0604,19.0232,0,U,57976,999,14916,.38644E-4,.802E-5,0
STARLINK-30509,2023-151P,2026-06-05T10:31:55.579008,15.27578848,.0001625,42.9996,215.1133,270.9785,89.0880,0,U,57977,999,14901,.11446E-3,.2889E-4,0
STARLINK-30511,2023-151Q,2026-06-02T12:04:10.255008,15.27567207,.0001407,43.0020,231.7764,280.7559,79.3134,0,U,57978,999,14856,-.10292E-3,-.3092E-4,0
STARLINK-30508,2023-151R,2026-06-04T06:31:54.306048,15.27578945,.00008854,42.9975,221.8266,262.1205,97.9546,0,U,57979,999,14883,-.5283805E-5,-.407E-5,0
STARLINK-30510,2023-151T,2026-06-03T14:18:12.144096,15.27580226,.00018082,43.0043,228.7659,262.9349,97.1297,0,U,57981,999,14869,.26470435E-3,.7029E-4,0
STARLINK-30507,2023-151U,2026-06-01T13:44:53.058048,15.27567170,.00016962,43.0007,240.2381,229.8284,130.2419,0,U,57982,999,14837,-.10825424E-4,-.56E-5,0
STARLINK-30515,2023-151V,2026-06-01T07:33:48.011328,15.27578289,.00025125,43.0053,241.7398,258.1757,101.8813,0,U,57983,999,14833,.39279517E-4,.818E-5,0
STARLINK-30516,2023-151W,2026-06-05T10:31:13.084032,15.27587041,.0001689,43.0023,218.5166,276.9259,83.1400,0,U,57984,999,14897,.12771E-3,.3254E-4,0
